NORAD_CAT_ID,OBJECT_NAME,OBJECT_TYPE,EPOCH,MEAN_MOTION,ECCENTRICITY,INCLINATION,RA_OF_ASC_NODE,ARG_OF_PERICENTER,MEAN_ANOMALY,BSTAR,MEAN_MOTION_DOT,MEAN_MOTION_DDOT,TLE_LINE0,TLE_LINE1,TLE_LINE2,SEMIMAJOR_AXIS,PERIOD,APOGEE,PERIGEE,DECAYED
51781.0,STARLINK-3580,PAYLOAD,2023-06-17 04:55:57,15.08838726,0.000139,53.2174,132.5622,95.3389,264.7762,2.3957e-05,9.3e-07,0.0,0 STARLINK-3580,1 51781U 22017P   23168.20552920  .00000093  00000-0  23957-4 0  9991,2 51781  53.2174 132.5622 0001390  95.3389 264.7762 15.08838726 71984,6917.884,95.438,540.711,538.788,0.0
51781.0,STARLINK-3580,PAYLOAD,2023-06-17 14:28:17,15.08832867,0.0001376,53.2173,130.7785,96.4582,263.6567,-1.4795e-05,-5.23e-06,0.0,0 STARLINK-3580,1 51781U 22017P   23168.60297495 -.00000523  00000-0 -14795-4 0  9998,2 51781  53.2173 130.7785 0001376  96.4582 263.6567 15.08832867 72043,6917.902,95.438,540.719,538.815,0.0
51781.0,STARLINK-3580,PAYLOAD,2023-06-17 22:25:12,15.08832195,0.0001429,53.2173,129.292,102.1057,258.0095,-4.7883e-05,-1.05e-05,0.0,0 STARLINK-3580,1 51781U 22017P   23168.93417790 -.00001050  00000-0 -47883-4 0  9996,2 51781  53.2173 129.2920 0001429 102.1057 258.0095 15.08832195 73744,6917.904,95.438,540.758,538.781,0.0
51781.0,STARLINK-3580,PAYLOAD,2023-06-18 06:22:08,15.08832638,0.0001427,53.2173,127.8053,102.0092,258.106,-4.0441e-05,-9.31e-06,0.0,0 STARLINK-3580,1 51781U 22017P   23169.26537884 -.00000931  00000-0 -40441-4 0  9990,2 51781  53.2173 127.8053 0001427 102.0092 258.1060 15.08832638 72149,6917.903,95.438,540.755,538.781,0.0
51781.0,STARLINK-3580,PAYLOAD,2023-06-18 14:19:04,15.08836314,0.0001331,53.2169,126.3169,93.7343,266.3801,-1.8641e-05,-5.85e-06,0.0,0 STARLINK-3580,1 51781U 22017P   23169.59657647 -.00000585  00000-0 -18641-4 0  9998,2 51781  53.2169 126.3169 0001331  93.7343 266.3801 15.08836314 72199,6917.892,95.438,540.677,538.836,0.0
51781.0,STARLINK-3580,PAYLOAD,2023-06-19 06:12:54,15.08842849,0.0001251,53.2158,123.3426,92.5001,267.6135,6.7194e-05,7.82e-06,0.0,0 STARLINK-3580,1 51781U 22017P   23170.25896972  .00000782  00000-0  67194-4 0  9993,2 51781  53.2158 123.3426 0001251  92.5001 267.6135 15.08842849 73947,6917.872,95.437,540.602,538.871,0.0
51781.0,STARLINK-3580,PAYLOAD,2023-06-19 14:09:50,15.08842698,0.0001334,53.217,121.8536,92.4859,267.6286,-3.2548e-05,-8.06e-06,0.0,0 STARLINK-3580,1 51781U 22017P   23170.59017335 -.00000806  00000-0 -32548-4 0  9992,2 51781  53.2170 121.8536 0001334  92.4859 267.6286 15.08842698 72340,6917.872,95.437,540.66,538.814,0.0
51781.0,STARLINK-3580,PAYLOAD,2023-06-20 02:52:56,15.0883366,0.0001322,53.2164,119.4742,92.1544,267.96,8.0893e-05,1e-05,0.0,0 STARLINK-3580,1 51781U 22017P   23171.12009728  .00001000  00000-0  80893-4 0  9990,2 51781  53.2164 119.4742 0001322  92.1544 267.9600 15.08833660 74074,6917.9,95.438,540.679,538.85,0.0
51781.0,STARLINK-3580,PAYLOAD,2023-06-20 06:03:42,15.08835857,0.0001318,53.2166,118.879,93.052,267.0623,6.3387e-05,7.21e-06,0.0,0 STARLINK-3580,1 51781U 22017P   23171.25257676  .00000721  00000-0  63387-4 0  9999,2 51781  53.2166 118.8790 0001318  93.0520 267.0623 15.08835857 72446,6917.893,95.438,540.67,538.846,0.0
51781.0,STARLINK-3580,PAYLOAD,2023-06-20 14:00:38,15.08836061,0.0001353,53.2167,117.394,86.4942,273.6204,2.9079e-05,1.75e-06,0.0,0 STARLINK-3580,1 51781U 22017P   23171.58377874  .00000175  00000-0  29079-4 0  9991,2 51781  53.2167 117.3940 0001353  86.4942 273.6204 15.08836061 72492,6917.892,95.438,540.693,538.821,0.0
51781.0,STARLINK-3580,PAYLOAD,2023-06-21 02:43:43,15.08843889,0.0001353,53.2167,115.0139,89.3875,270.7272,2.3798e-05,9.1e-07,0.0,0 STARLINK-3580,1 51781U 22017P   23172.11369379  .00000091  00000-0  23798-4 0  9991,2 51781  53.2167 115.0139 0001353  89.3875 270.7272 15.08843889 74226,6917.869,95.437,540.669,538.798,0.0
51781.0,STARLINK-3580,PAYLOAD,2023-06-21 05:54:29,15.08845421,0.0001368,53.2168,114.419,89.6355,270.4794,3.7705e-05,3.12e-06,0.0,0 STARLINK-3580,1 51781U 22017P   23172.24617214  .00000312  00000-0  37705-4 0  9998,2 51781  53.2168 114.4190 0001368  89.6355 270.4794 15.08845421 72597,6917.864,95.437,540.675,538.782,0.0
51781.0,STARLINK-3580,PAYLOAD,2023-06-22 05:45:16,15.08824524,0.0001464,53.2175,109.9575,95.5167,264.5992,0.00021701,3.166e-05,0.0,0 STARLINK-3580,1 51781U 22017P   23173.23977766  .00003166  00000-0  21701-3 0  9997,2 51781  53.2175 109.9575 0001464  95.5167 264.5992 15.08824524 74390,6917.928,95.439,540.805,538.78,0.0
51781.0,STARLINK-3580,PAYLOAD,2023-06-23 02:25:17,15.08844624,0.0001239,53.2167,106.093,82.7188,277.3945,2.6112e-05,1.28e-06,0.0,0 STARLINK-3580,1 51781U 22017P   23174.10089288  .00000128  00000-0  26112-4 0  9994,2 51781  53.2167 106.0930 0001239  82.7188 277.3945 15.08844624 74523,6917.866,95.437,540.588,538.874,0.0
51781.0,STARLINK-3580,PAYLOAD,2023-06-23 11:57:36,15.08839874,0.0001201,53.2167,104.3098,83.2426,276.8703,-2.9733e-05,-7.61e-06,0.0,0 STARLINK-3580,1 51781U 22017P   23174.49833704 -.00000761  00000-0 -29733-4 0  9993,2 51781  53.2167 104.3098 0001201  83.2426 276.8703 15.08839874 74582,6917.881,95.438,540.577,538.915,0.0
51781.0,STARLINK-3580,PAYLOAD,2023-06-25 02:06:52,15.08832411,0.0001297,53.2173,97.1785,102.8117,257.302,7.9487e-06,-1.61e-06,0.0,0 STARLINK-3580,1 51781U 22017P   23176.08810438 -.00000161  00000-0  79487-5 0  9994,2 51781  53.2173  97.1785 0001297 102.8117 257.3020 15.08832411 74824,6917.904,95.438,540.666,538.871,0.0
51781.0,STARLINK-3580,PAYLOAD,2023-06-25 03:42:14,15.08838648,0.0001237,53.2176,96.8785,90.4993,269.6141,4.9382e-05,4.98e-06,0.0,0 STARLINK-3580,1 51781U 22017P   23176.15433956  .00000498  00000-0  49382-4 0  9990,2 51781  53.2176  96.8785 0001237  90.4993 269.6141 15.08838648 74830,6917.885,95.438,540.605,538.894,0.0
51781.0,STARLINK-3580,PAYLOAD,2023-06-26 03:33:01,15.08849848,0.0001188,53.2175,92.4165,90.3364,269.7764,8.7419e-05,1.104e-05,0.0,0 STARLINK-3580,1 51781U 22017P   23177.14793215  .00001104  00000-0  87419-4 0  9995,2 51781  53.2175  92.4165 0001188  90.3364 269.7764 15.08849848 74981,6917.85,95.437,540.537,538.893,0.0
51781.0,STARLINK-3580,PAYLOAD,2023-06-26 11:29:58,15.08833739,0.0001555,53.2185,90.9314,84.4279,275.689,-3.2311e-05,-8.02e-06,0.0,0 STARLINK-3580,1 51781U 22017P   23177.47914749 -.00000802  00000-0 -32311-4 0  9995,2 51781  53.2185  90.9314 0001555  84.4279 275.6890 15.08833739 75033,6917.9,95.438,540.84,538.689,0.0
51781.0,STARLINK-3580,PAYLOAD,2023-06-27 17:42:17,15.08838331,0.000119,53.2174,85.28,86.7322,273.3806,2.6543e-05,1.35e-06,0.0,0 STARLINK-3580,1 51781U 22017P   23178.73770583  .00000135  00000-0  26543-4 0  9998,2 51781  53.2174  85.2800 0001190  86.7322 273.3806 15.08838331 75223,6917.885,95.438,540.574,538.927,0.0
51781.0,STARLINK-3580,PAYLOAD,2023-06-28 03:14:35,15.08851349,0.0001148,53.2171,83.4947,90.2637,269.8487,6.1096e-05,6.85e-06,0.0,0 STARLINK-3580,1 51781U 22017P   23179.13513576  .00000685  00000-0  61096-4 0  9992,2 51781  53.2171  83.4947 0001148  90.2637 269.8487 15.08851349 75289,6917.846,95.437,540.505,538.917,0.0
51781.0,STARLINK-3580,PAYLOAD,2023-06-29 03:05:23,15.08841675,0.0001262,53.2175,79.033,99.061,261.0525,5.8654e-05,6.46e-06,0.0,0 STARLINK-3580,1 51781U 22017P   23180.12874187  .00000646  00000-0  58654-4 0  9994,2 51781  53.2175  79.0330 0001262  99.0610 261.0525 15.08841675 75430,6917.875,95.437,540.613,538.867,0.0
51781.0,STARLINK-3580,PAYLOAD,2023-06-29 17:23:52,15.08832392,0.0001242,53.2175,76.3557,105.2997,254.8133,1.479e-05,-5.2e-07,0.0,0 STARLINK-3580,1 51781U 22017P   23180.72490934 -.00000052  00000-0  14790-4 0  9999,2 51781  53.2175  76.3557 0001242 105.2997 254.8133 15.08832392 75528,6917.904,95.438,540.628,538.909,0.0
51781.0,STARLINK-3580,PAYLOAD,2023-07-01 01:11:34,15.08839102,0.0001154,53.2178,70.4119,93.3941,266.7184,-1.4169e-06,-3.1e-06,0.0,0 STARLINK-3580,1 51781U 22017P   23182.04970811 -.00000310  00000-0 -14169-5 0  9992,2 51781  53.2178  70.4119 0001154  93.3941 266.7184 15.08839102 75724,6917.883,95.438,540.546,538.95,0.0
51781.0,STARLINK-3580,PAYLOAD,2023-07-02 08:59:17,15.08834888,0.0001093,53.2174,64.4639,88.2773,271.8344,4.9953e-05,5.07e-06,0.0,0 STARLINK-3580,1 51781U 22017P   23183.37451333  .00000507  00000-0  49953-4 0  9996,2 51781  53.2174  64.4639 0001093  88.2773 271.8344 15.08834888 75921,6917.896,95.438,540.517,539.005,0.0
51781.0,STARLINK-3580,PAYLOAD,2023-07-02 23:17:45,15.08844096,0.0001099,53.2176,61.7876,89.3961,270.7158,8.481e-05,1.062e-05,0.0,0 STARLINK-3580,1 51781U 22017P   23183.97066721  .00001062  00000-0  84810-4 0  9993,2 51781  53.2176  61.7876 0001099  89.3961 270.7158 15.08844096 76017,6917.868,95.437,540.493,538.973,0.0
51781.0,STARLINK-3580,PAYLOAD,2023-07-03 16:47:00,15.08837485,0.000127,53.2175,58.5164,88.1921,271.9217,7.3947e-06,-1.7e-06,0.0,0 STARLINK-3580,1 51781U 22017P   23184.69931521 -.00000170  00000-0  73947-5 0  9992,2 51781  53.2175  58.5164 0001270  88.1921 271.9217 15.08837485 76129,6917.888,95.438,540.632,538.875,0.0
51781.0,STARLINK-3580,PAYLOAD,2023-07-05 00:34:43,15.08845024,0.0001113,53.2172,52.5687,90.6278,269.4842,9.1914e-06,-1.42e-06,0.0,0 STARLINK-3580,1 51781U 22017P   23186.02411041 -.00000142  00000-0  91914-5 0  9994,2 51781  53.2172  52.5687 0001113  90.6278 269.4842 15.08845024 76325,6917.865,95.437,540.5,538.96,0.0
51781.0,STARLINK-3580,PAYLOAD,2023-07-06 08:22:25,15.08842126,0.0001236,53.2178,46.6223,81.4694,278.6438,6.2676e-05,7.1e-06,0.0,0 STARLINK-3580,1 51781U 22017P   23187.34891080  .00000710  00000-0  62676-4 0  9997,2 51781  53.2178  46.6223 0001236  81.4694 278.6438 15.08842126 76522,6917.874,95.437,540.594,538.884,0.0
51781.0,STARLINK-3580,PAYLOAD,2023-07-07 20:56:18,15.0884116,0.0001357,53.2182,39.7829,85.7085,274.4062,7.2318e-06,-1.73e-06,0.0,0 STARLINK-3580,1 51781U 22017P   23188.87243289 -.00000173  00000-0  72318-5 0  9997,2 51781  53.2182  39.7829 0001357  85.7085 274.4062 15.08841160 76756,6917.877,95.437,540.681,538.803,0.0
